start=new Date('2022-11-09T00:00:00.000Z').valueOf();
sats=[{"OBJECT_ID":"2022-104AE","APOAPSIS":"435.869","ARG_OF_PERICENTER":"32.6900","OBJECT_TYPE":"PAYLOAD","ELEMENT_SET_NO":"999","RCS_SIZE":"LARGE","OBJECT_NAME":"STARLINK-4605","EPOCH":"2022-11-08T22:00:00.999936","CLASSIFICATION_TYPE":"U","SITE":"AFETR","GP_ID":"217204549","FILE":"3649076","REV_AT_EPOCH":"130","TLE_LINE1":"1 53616U 22104AE  22312.91667824 -.01121845  00000-0 -26564-1 0  9991","INCLINATION":"53.2155","TLE_LINE2":"2 53616  53.2155 288.2735 0001772  32.6900  52.0157 15.43883856  1301","MEAN_ELEMENT_THEORY":"SGP4","BSTAR":"-0.02656400000000","EPHEMERIS_TYPE":"0","PERIOD":"93.271","MEAN_MOTION_DDOT":"0.0000000000000","SEMIMAJOR_AXIS":"6812.797","TIME_SYSTEM":"UTC","MEAN_MOTION":"15.43883856","MEAN_MOTION_DOT":"-0.01121845","PERIAPSIS":"433.454","NORAD_CAT_ID":"53616","RA_OF_ASC_NODE":"288.2735","LAUNCH_DATE":"2022-08-28","CENTER_NAME":"EARTH","REF_FRAME":"TEME","DECAY_DATE":null,"COUNTRY_CODE":"US","ECCENTRICITY":"0.00017720","MEAN_ANOMALY":"52.0157"},{"RCS_SIZE":"LARGE","SITE":"AFETR","OBJECT_NAME":"STARLINK-4601","CLASSIFICATION_TYPE":"U","EPOCH":"2022-11-08T22:00:00.999936","APOAPSIS":"540.871","OBJECT_ID":"2022-104AF","ARG_OF_PERICENTER":"52.1606","ELEMENT_SET_NO":"999","OBJECT_TYPE":"PAYLOAD","TLE_LINE2":"2 53617  53.2154 296.4535 0001716  52.1606 290.0417 15.08860028  1308","GP_ID":"217205146","REV_AT_EPOCH":"130","TLE_LINE1":"1 53617U 22104AF  22312.91667824  .00011416  00000-0  73379-3 0  9999","INCLINATION":"53.2154","FILE":"3649076","MEAN_MOTION_DOT":"0.00011416","MEAN_MOTION":"15.08860028","NORAD_CAT_ID":"53617","PERIAPSIS":"538.497","LAUNCH_DATE":"2022-08-28","RA_OF_ASC_NODE":"296.4535","MEAN_ELEMENT_THEORY":"SGP4","PERIOD":"95.436","BSTAR":"0.00073379000000","EPHEMERIS_TYPE":"0","MEAN_MOTION_DDOT":"0.0000000000000","SEMIMAJOR_AXIS":"6917.819","TIME_SYSTEM":"UTC","MEAN_ANOMALY":"290.0417","ECCENTRICITY":"0.00017160","DECAY_DATE":null,"COUNTRY_CODE":"US","CENTER_NAME":"EARTH","REF_FRAME":"TEME"},{"GP_ID":"217203967","INCLINATION":"53.2172","TLE_LINE1":"1 53618U 22104AG  22312.91667824  .00017518  00000-0  11164-2 0  9992","REV_AT_EPOCH":"130","FILE":"3649076","TLE_LINE2":"2 53618  53.2172 296.3359 0002066  42.6496 359.5677 15.08826854  1300","APOAPSIS":"541.215","OBJECT_ID":"2022-104AG","ARG_OF_PERICENTER":"42.6496","OBJECT_TYPE":"PAYLOAD","ELEMENT_SET_NO":"999","RCS_SIZE":"LARGE","SITE":"AFETR","OBJECT_NAME":"STARLINK-4604","CLASSIFICATION_TYPE":"U","EPOCH":"2022-11-08T22:00:00.999936","CENTER_NAME":"EARTH","REF_FRAME":"TEME","MEAN_ANOMALY":"359.5677","DECAY_DATE":null,"COUNTRY_CODE":"US","ECCENTRICITY":"0.00020660","MEAN_ELEMENT_THEORY":"SGP4","PERIOD":"95.438","EPHEMERIS_TYPE":"0","BSTAR":"0.00111640000000","MEAN_MOTION_DDOT":"0.0000000000000","TIME_SYSTEM":"UTC","SEMIMAJOR_AXIS":"6917.921","MEAN_MOTION_DOT":"0.00017518","MEAN_MOTION":"15.08826854","NORAD_CAT_ID":"53618","PERIAPSIS":"538.356","LAUNCH_DATE":"2022-08-28","RA_OF_ASC_NODE":"296.3359"},{"EPHEMERIS_TYPE":"0","BSTAR":"0.00200030000000","PERIOD":"95.438","MEAN_ELEMENT_THEORY":"SGP4","SEMIMAJOR_AXIS":"6917.886","TIME_SYSTEM":"UTC","MEAN_MOTION_DDOT":"0.0000000000000","MEAN_MOTION":"15.08838083","MEAN_MOTION_DOT":"0.00031689","RA_OF_ASC_NODE":"296.4085","LAUNCH_DATE":"2022-08-28","PERIAPSIS":"538.682","NORAD_CAT_ID":"53619","REF_FRAME":"TEME","CENTER_NAME":"EARTH","COUNTRY_CODE":"US","DECAY_DATE":null,"ECCENTRICITY":"0.00015450","MEAN_ANOMALY":"312.2267","ARG_OF_PERICENTER":"49.9745","OBJECT_ID":"2022-104AH","APOAPSIS":"540.820","ELEMENT_SET_NO":"999","OBJECT_TYPE":"PAYLOAD","RCS_SIZE":"LARGE","CLASSIFICATION_TYPE":"U","EPOCH":"2022-11-08T22:00:00.999936","OBJECT_NAME":"STARLINK-4609","SITE":"AFETR","FILE":"3649076","TLE_LINE1":"1 53619U 22104AH  22312.91667824  .00031689  00000-0  20003-2 0  9990","INCLINATION":"53.2151","REV_AT_EPOCH":"130","GP_ID":"217204992","TLE_LINE2":"2 53619  53.2151 296.4085 0001545  49.9745 312.2267 15.08838083  1301"},{"GP_ID":"217204138","TLE_LINE1":"1 53620U 22104AJ  22312.91667824  .00003935  00000-0  26500-3 0  9994","INCLINATION":"53.2158","REV_AT_EPOCH":"130","FILE":"3649076","TLE_LINE2":"2 53620  53.2158 296.2538 0001847  46.4385  35.9386 15.08867472  1303","OBJECT_TYPE":"PAYLOAD","ELEMENT_SET_NO":"999","APOAPSIS":"540.939","OBJECT_ID":"2022-104AJ","ARG_OF_PERICENTER":"46.4385","SITE":"AFETR","OBJECT_NAME":"STARLINK-4615","EPOCH":"2022-11-08T22:00:00.999936","CLASSIFICATION_TYPE":"U","RCS_SIZE":"LARGE","CENTER_NAME":"EARTH","REF_FRAME":"TEME","MEAN_ANOMALY":"35.9386","COUNTRY_CODE":"US","DECAY_DATE":null,"ECCENTRICITY":"0.00018470","MEAN_MOTION_DDOT":"0.0000000000000","TIME_SYSTEM":"UTC","SEMIMAJOR_AXIS":"6917.796","MEAN_ELEMENT_THEORY":"SGP4","PERIOD":"95.436","BSTAR":"0.00026500000000","EPHEMERIS_TYPE":"0","NORAD_CAT_ID":"53620","PERIAPSIS":"538.384","LAUNCH_DATE":"2022-08-28","RA_OF_ASC_NODE":"296.2538","MEAN_MOTION_DOT":"0.00003935","MEAN_MOTION":"15.08867472"},{"TLE_LINE2":"2 53621  53.2153 296.3725 0001744  43.6959 338.6179 15.08872152  1304","GP_ID":"217204883","TLE_LINE1":"1 53621U 22104AK  22312.91667824 -.00016417  00000-0 -10148-2 0  9996","INCLINATION":"53.2153","REV_AT_EPOCH":"130","FILE":"3649076","RCS_SIZE":"LARGE","SITE":"AFETR","EPOCH":"2022-11-08T22:00:00.999936","OBJECT_NAME":"STARLINK-4608","CLASSIFICATION_TYPE":"U","APOAPSIS":"540.854","OBJECT_ID":"2022-104AK","ARG_OF_PERICENTER":"43.6959","OBJECT_TYPE":"PAYLOAD","ELEMENT_SET_NO":"999","MEAN_ANOMALY":"338.6179","COUNTRY_CODE":"US","DECAY_DATE":null,"ECCENTRICITY":"0.00017440","CENTER_NAME":"EARTH","REF_FRAME":"TEME","MEAN_MOTION_DOT":"-0.00016417","MEAN_MOTION":"15.08872152","NORAD_CAT_ID":"53621","PERIAPSIS":"538.441","LAUNCH_DATE":"2022-08-28","RA_OF_ASC_NODE":"296.3725","MEAN_ELEMENT_THEORY":"SGP4","PERIOD":"95.436","EPHEMERIS_TYPE":"0","BSTAR":"-0.00101480000000","MEAN_MOTION_DDOT":"0.0000000000000","TIME_SYSTEM":"UTC","SEMIMAJOR_AXIS":"6917.782"},{"REF_FRAME":"TEME","CENTER_NAME":"EARTH","MEAN_ANOMALY":"67.3653","COUNTRY_CODE":"US","DECAY_DATE":null,"ECCENTRICITY":"0.00018690","TIME_SYSTEM":"UTC","SEMIMAJOR_AXIS":"6917.744","MEAN_MOTION_DDOT":"0.0000000000000","PERIOD":"95.435","BSTAR":"-0.00104740000000","EPHEMERIS_TYPE":"0","MEAN_ELEMENT_THEORY":"SGP4","LAUNCH_DATE":"2022-08-28","RA_OF_ASC_NODE":"296.1911","NORAD_CAT_ID":"53622","PERIAPSIS":"538.316","MEAN_MOTION_DOT":"-0.00016939","MEAN_MOTION":"15.08884575","TLE_LINE1":"1 53622U 22104AL  22312.91667824 -.00016939  00000-0 -10474-2 0  9998","INCLINATION":"53.2163","REV_AT_EPOCH":"130","FILE":"3649076","GP_ID":"217204378","TLE_LINE2":"2 53622  53.2163 296.1911 0001869  49.7913  67.3653 15.08884575  1301","ELEMENT_SET_NO":"999","OBJECT_TYPE":"PAYLOAD","ARG_OF_PERICENTER":"49.7913","APOAPSIS":"540.902","OBJECT_ID":"2022-104AL","SITE":"AFETR","CLASSIFICATION_TYPE":"U","EPOCH":"2022-11-08T22:00:00.999936","OBJECT_NAME":"STARLINK-4568","RCS_SIZE":"LARGE"},{"TLE_LINE1":"1 53623U 22104AM  22312.91667824  .00003721  00000-0  25162-3 0  9993","REV_AT_EPOCH":"130","INCLINATION":"53.2152","FILE":"3649076","GP_ID":"217204729","TLE_LINE2":"2 53623  53.2152 296.2934 0001660  54.2173   8.1110 15.08857080  1306","ARG_OF_PERICENTER":"54.2173","APOAPSIS":"540.842","OBJECT_ID":"2022-104AM","OBJECT_TYPE":"PAYLOAD","ELEMENT_SET_NO":"999","RCS_SIZE":"LARGE","SITE":"AFETR","OBJECT_NAME":"STARLINK-4573","EPOCH":"2022-11-08T22:00:00.999936","CLASSIFICATION_TYPE":"U","REF_FRAME":"TEME","CENTER_NAME":"EARTH","MEAN_ANOMALY":"8.1110","COUNTRY_CODE":"US","DECAY_DATE":null,"ECCENTRICITY":"0.00016600","PERIOD":"95.436","EPHEMERIS_TYPE":"0","BSTAR":"0.00025162000000","MEAN_ELEMENT_THEORY":"SGP4","TIME_SYSTEM":"UTC","SEMIMAJOR_AXIS":"6917.828","MEAN_MOTION_DDOT":"0.0000000000000","MEAN_MOTION_DOT":"0.00003721","MEAN_MOTION":"15.08857080","LAUNCH_DATE":"2022-08-28","RA_OF_ASC_NODE":"296.2934","NORAD_CAT_ID":"53623","PERIAPSIS":"538.545"},{"MEAN_ANOMALY":"68.1362","DECAY_DATE":null,"COUNTRY_CODE":"US","ECCENTRICITY":"0.00016050","REF_FRAME":"TEME","CENTER_NAME":"EARTH","LAUNCH_DATE":"2022-08-28","RA_OF_ASC_NODE":"296.1791","NORAD_CAT_ID":"53624","PERIAPSIS":"538.576","MEAN_MOTION_DOT":"-0.00058416","MEAN_MOTION":"15.08859437","TIME_SYSTEM":"UTC","SEMIMAJOR_AXIS":"6917.821","MEAN_MOTION_DDOT":"0.0000000000000","PERIOD":"95.436","EPHEMERIS_TYPE":"0","BSTAR":"-0.00368030000000","MEAN_ELEMENT_THEORY":"SGP4","TLE_LINE2":"2 53624  53.2160 296.1791 0001605  54.2443  68.1362 15.08859437  1308","TLE_LINE1":"1 53624U 22104AN  22312.91667824 -.00058416  00000-0 -36803-2 0  9990","INCLINATION":"53.2160","REV_AT_EPOCH":"130","FILE":"3649076","GP_ID":"217204550","SITE":"AFETR","OBJECT_NAME":"STARLINK-4596","CLASSIFICATION_TYPE":"U","EPOCH":"2022-11-08T22:00:00.999936","RCS_SIZE":"LARGE","OBJECT_TYPE":"PAYLOAD","ELEMENT_SET_NO":"999","ARG_OF_PERICENTER":"54.2443","APOAPSIS":"540.796","OBJECT_ID":"2022-104AN"},{"MEAN_ANOMALY":"55.6177","COUNTRY_CODE":"US","DECAY_DATE":null,"ECCENTRICITY":"0.00016750","REF_FRAME":"TEME","CENTER_NAME":"EARTH","LAUNCH_DATE":"2022-08-28","RA_OF_ASC_NODE":"296.2172","NORAD_CAT_ID":"53625","PERIAPSIS":"538.463","MEAN_MOTION_DOT":"-0.00019252","MEAN_MOTION":"15.08880489","TIME_SYSTEM":"UTC","SEMIMAJOR_AXIS":"6917.757","MEAN_MOTION_DDOT":"0.0000000000000","PERIOD":"95.435","BSTAR":"-0.00119340000000","EPHEMERIS_TYPE":"0","MEAN_ELEMENT_THEORY":"SGP4","TLE_LINE2":"2 53625  53.2146 296.2172 0001675  46.7319  55.6177 15.08880489  1308","REV_AT_EPOCH":"130","TLE_LINE1":"1 53625U 22104AP  22312.91667824 -.00019252  00000-0 -11934-2 0  9994","INCLINATION":"53.2146","FILE":"3649076","GP_ID":"217205147","SITE":"AFETR","OBJECT_NAME":"STARLINK-4603","EPOCH":"2022-11-08T22:00:00.999936","CLASSIFICATION_TYPE":"U","RCS_SIZE":"LARGE","ELEMENT_SET_NO":"999","OBJECT_TYPE":"PAYLOAD","ARG_OF_PERICENTER":"46.7319","APOAPSIS":"540.780","OBJECT_ID":"2022-104AP"}];
